NORAD_CAT_ID,OBJECT_NAME,OBJECT_TYPE,EPOCH,MEAN_MOTION,ECCENTRICITY,INCLINATION,RA_OF_ASC_NODE,ARG_OF_PERICENTER,MEAN_ANOMALY,BSTAR,MEAN_MOTION_DOT,MEAN_MOTION_DDOT,TLE_LINE0,TLE_LINE1,TLE_LINE2,SEMIMAJOR_AXIS,PERIOD,APOGEE,PERIGEE,DECAYED
53700.0,STARLINK-4725,PAYLOAD,2023-10-15 19:51:13,15.08838892,0.0001235,53.2172,215.6405,91.1464,268.967,0.00013439,1.852e-05,0.0,0 STARLINK-4725,1 53700U 22107A   23288.82724149  .00001852  00000-0  13439-3 0  9996,2 53700  53.2172 215.6405 0001235  91.1464 268.9670 15.08838892 62633,6917.884,95.438,540.603,538.894,0.0
53700.0,STARLINK-4725,PAYLOAD,2023-10-16 02:12:46,15.08857689,0.0001322,53.2174,214.4566,87.5072,272.6072,0.0010909,0.00017125,0.0,0 STARLINK-4725,1 53700U 22107A   23289.09220049  .00017125  00000-0  10909-2 0  9994,2 53700  53.2174 214.4566 0001322  87.5072 272.6072 15.08857689 61925,6917.826,95.436,540.606,538.777,0.0
53700.0,STARLINK-4725,PAYLOAD,2023-10-16 11:45:04,15.08857013,0.000136,53.2177,212.672,85.7551,274.3596,0.00056975,8.795e-05,0.0,0 STARLINK-4725,1 53700U 22107A   23289.48963792  .00008795  00000-0  56975-3 0  9993,2 53700  53.2177 212.6720 0001360  85.7551 274.3596 15.08857013 61981,6917.828,95.436,540.634,538.753,0.0
53700.0,STARLINK-4725,PAYLOAD,2023-10-16 18:06:37,15.08856719,0.000185,53.2188,211.4873,101.4348,258.6852,0.0002072,3.012e-05,0.0,0 STARLINK-4725,1 53700U 22107A   23289.75459686  .00003012  00000-0  20720-3 0  9991,2 53700  53.2188 211.4873 0001850 101.4348 258.6852 15.08856719 62773,6917.829,95.436,540.974,538.414,0.0
53700.0,STARLINK-4725,PAYLOAD,2023-10-17 11:35:52,15.08834856,0.0003853,53.2166,208.2106,77.4338,282.7085,0.00024932,3.681e-05,0.0,0 STARLINK-4725,1 53700U 22107A   23290.48325030  .00003681  00000-0  24932-3 0  9999,2 53700  53.2166 208.2106 0003853  77.4338 282.7085 15.08834856 62132,6917.896,95.438,542.427,537.096,0.0
53700.0,STARLINK-4725,PAYLOAD,2023-10-18 01:54:20,15.08839529,0.0001469,53.2161,205.5329,76.1092,284.0063,0.00025457,3.766e-05,0.0,0 STARLINK-4725,1 53700U 22107A   23291.07940178  .00003766  00000-0  25457-3 0  9998,2 53700  53.2161 205.5329 0001469  76.1092 284.0063 15.08839529 62973,6917.882,95.438,540.763,538.731,0.0
53700.0,STARLINK-4725,PAYLOAD,2023-10-18 11:26:38,15.08847767,0.0001503,53.216,203.7489,75.0756,285.0403,0.00018672,2.686e-05,0.0,0 STARLINK-4725,1 53700U 22107A   23291.47683875  .00002686  00000-0  18672-3 0  9991,2 53700  53.2160 203.7489 0001503  75.0756 285.0403 15.08847767 62289,6917.857,95.437,540.761,538.682,0.0
53700.0,STARLINK-4725,PAYLOAD,2023-10-19 01:45:07,15.0884644,0.0001529,53.216,201.0747,78.8781,281.2383,0.00022254,3.256e-05,0.0,0 STARLINK-4725,1 53700U 22107A   23292.07300033  .00003256  00000-0  22254-3 0  9995,2 53700  53.2160 201.0747 0001529  78.8781 281.2383 15.08846440 62376,6917.861,95.437,540.783,538.668,0.0
53700.0,STARLINK-4725,PAYLOAD,2023-10-19 22:25:07,15.08852645,0.0001553,53.2161,197.2109,75.6904,284.426,0.00030961,4.645e-05,0.0,0 STARLINK-4725,1 53700U 22107A   23292.93411667  .00004645  00000-0  30961-3 0  9993,2 53700  53.2161 197.2109 0001553  75.6904 284.4260 15.08852645 63255,6917.842,95.437,540.781,538.632,0.0
53700.0,STARLINK-4725,PAYLOAD,2023-10-20 03:11:16,15.0886465,0.0001382,53.2156,196.3155,91.9618,268.1532,0.00047727,7.321e-05,0.0,0 STARLINK-4725,1 53700U 22107A   23293.13282897  .00007321  00000-0  47727-3 0  9999,2 53700  53.2156 196.3155 0001382  91.9618 268.1532 15.08864650 62533,6917.805,95.436,540.626,538.714,0.0
53700.0,STARLINK-4725,PAYLOAD,2023-10-20 20:40:32,15.08831249,0.0001419,53.216,193.0455,81.5465,278.5687,-9.405e-05,-1.784e-05,0.0,0 STARLINK-4725,1 53700U 22107A   23293.86148373 -.00001784  00000-0 -94050-4 0  9990,2 53700  53.2160 193.0455 0001419  81.5465 278.5687 15.08831249 62647,6917.907,95.438,540.754,538.79,0.0
53700.0,STARLINK-4725,PAYLOAD,2023-10-20 22:15:55,15.08830505,0.0001501,53.2157,192.7489,75.7627,284.3532,-9.4083e-05,-1.785e-05,0.0,0 STARLINK-4725,1 53700U 22107A   23293.92772476 -.00001785  00000-0 -94083-4 0  9991,2 53700  53.2157 192.7489 0001501  75.7627 284.3532 15.08830505 63406,6917.909,95.438,540.813,538.736,0.0
53700.0,STARLINK-4725,PAYLOAD,2023-10-21 03:02:04,15.08835314,0.000144,53.2159,191.8547,87.5973,272.5184,5.6987e-05,6.19e-06,0.0,0 STARLINK-4725,1 53700U 22107A   23294.12644476  .00000619  00000-0  56987-4 0  9996,2 53700  53.2159 191.8547 0001440  87.5973 272.5184 15.08835314 63438,6917.895,95.438,540.756,538.764,0.0
53700.0,STARLINK-4725,PAYLOAD,2023-10-21 17:20:32,15.0884941,0.0001303,53.2163,189.1788,81.6631,278.4509,0.00038898,5.91e-05,0.0,0 STARLINK-4725,1 53700U 22107A   23294.72260029  .00005910  00000-0  38898-3 0  9999,2 53700  53.2163 189.1788 0001303  81.6631 278.4509 15.08849410 62778,6917.852,95.437,540.618,538.815,0.0
53700.0,STARLINK-4725,PAYLOAD,2023-10-21 22:06:41,15.08865973,0.0001522,53.2154,188.2872,75.7293,284.3868,0.0011463,0.00018015,0.0,0 STARLINK-4725,1 53700U 22107A   23294.92131861  .00018015  00000-0  11463-2 0  9990,2 53700  53.2154 188.2872 0001522  75.7293 284.3868 15.08865973 63556,6917.801,95.436,540.719,538.613,0.0
53700.0,STARLINK-4725,PAYLOAD,2023-10-21 23:42:04,15.0887226,0.0001526,53.2159,187.9897,83.1985,276.9181,0.0012862,0.00020259,0.0,0 STARLINK-4725,1 53700U 22107A   23294.98755632  .00020259  00000-0  12862-2 0  9991,2 53700  53.2159 187.9897 0001526  83.1985 276.9181 15.08872260 62819,6917.782,95.436,540.702,538.591,0.0
53700.0,STARLINK-4725,PAYLOAD,2023-10-22 20:22:06,15.08846602,0.0001464,53.2162,184.1247,108.6769,251.4382,0.00047858,7.338e-05,0.0,0 STARLINK-4725,1 53700U 22107A   23295.84868202  .00007338  00000-0  47858-3 0  9992,2 53700  53.2162 184.1247 0001464 108.6769 251.4382 15.08846602 62941,6917.86,95.437,540.738,538.712,0.0
53700.0,STARLINK-4725,PAYLOAD,2023-10-22 21:57:29,15.08838775,0.000144,53.2162,183.8277,121.5475,238.5658,0.0012132,0.00019072,0.0,0 STARLINK-4725,1 53700U 22107A   23295.91492398  .00019072  00000-0  12132-2 0  9993,2 53700  53.2162 183.8277 0001440 121.5475 238.5658 15.08838775 63701,6917.884,95.438,540.745,538.753,0.0
53700.0,STARLINK-4725,PAYLOAD,2023-10-22 23:32:52,15.08817328,0.0001472,53.2162,183.5301,103.2018,256.9139,0.0011543,0.00018119,0.0,0 STARLINK-4725,1 53700U 22107A   23295.98116667  .00018119  00000-0  11543-2 0  9998,2 53700  53.2162 183.5301 0001472 103.2018 256.9139 15.08817328 62967,6917.95,95.439,540.833,538.796,0.0
53700.0,STARLINK-4725,PAYLOAD,2023-10-23 21:48:17,15.08845972,0.0001415,53.2163,179.3664,102.1481,257.967,0.001134,0.00017809,0.0,0 STARLINK-4725,1 53700U 22107A   23296.90853190  .00017809  00000-0  11340-2 0  9990,2 53700  53.2163 179.3664 0001415 102.1481 257.9670 15.08845972 63858,6917.862,95.437,540.706,538.748,0.0
53700.0,STARLINK-4725,PAYLOAD,2023-10-24 02:34:26,15.08851677,0.0001414,53.2163,178.4749,105.3943,254.7206,0.00095226,0.00014905,0.0,0 STARLINK-4725,1 53700U 22107A   23297.10724980  .00014905  00000-0  95226-3 0  9997,2 53700  53.2163 178.4749 0001414 105.3943 254.7206 15.08851677 63139,6917.845,95.437,540.688,538.732,0.0
53700.0,STARLINK-4725,PAYLOAD,2023-10-24 08:55:58,15.08845877,0.0001446,53.2154,177.2848,101.9403,258.1751,0.00049906,7.665e-05,0.0,0 STARLINK-4725,1 53700U 22107A   23297.37220979  .00007665  00000-0  49906-3 0  9994,2 53700  53.2154 177.2848 0001446 101.9403 258.1751 15.08845877 63176,6917.862,95.437,540.728,538.727,0.0
53700.0,STARLINK-4725,PAYLOAD,2023-10-25 21:29:51,15.08839634,0.0001527,53.2166,170.4464,104.5211,255.5951,2.5731e-05,1.22e-06,0.0,0 STARLINK-4725,1 53700U 22107A   23298.89573124  .00000122  00000-0  25731-4 0  9997,2 53700  53.2166 170.4464 0001527 104.5211 255.5951 15.08839634 63407,6917.882,95.438,540.803,538.69,0.0
53700.0,STARLINK-4725,PAYLOAD,2023-10-26 00:40:37,15.0883901,0.0001407,53.2163,169.8513,103.3414,256.7735,1.2143e-05,-9.5e-07,0.0,0 STARLINK-4725,1 53700U 22107A   23299.02821617 -.00000095  00000-0  12143-4 0  9999,2 53700  53.2163 169.8513 0001407 103.3414 256.7735 15.08839010 64176,6917.883,95.438,540.722,538.775,0.0
53700.0,STARLINK-4725,PAYLOAD,2023-10-26 21:20:37,15.08850113,0.0001452,53.2161,165.9866,96.2634,263.8524,0.00010221,1.34e-05,0.0,0 STARLINK-4725,1 53700U 22107A   23299.88932640  .00001340  00000-0  10221-3 0  9999,2 53700  53.2161 165.9866 0001452  96.2634 263.8524 15.08850113 64303,6917.849,95.437,540.719,538.71,0.0
53700.0,STARLINK-4725,PAYLOAD,2023-10-27 00:31:23,15.08861939,0.0001694,53.2163,165.3908,122.8618,237.2537,0.00012293,1.67e-05,0.0,0 STARLINK-4725,1 53700U 22107A   23300.02179633  .00001670  00000-0  12293-3 0  9990,2 53700  53.2163 165.3908 0001694 122.8618 237.2537 15.08861939 63577,6917.813,95.436,540.85,538.506,0.0
53700.0,STARLINK-4725,PAYLOAD,2023-10-27 08:28:20,15.08843012,0.0001628,53.2156,163.9042,94.7103,265.4075,0.00010114,1.322e-05,0.0,0 STARLINK-4725,1 53700U 22107A   23300.35300964  .00001322  00000-0  10114-3 0  9993,2 53700  53.2156 163.9042 0001628  94.7103 265.4075 15.08843012 63623,6917.871,95.437,540.862,538.61,0.0
53700.0,STARLINK-4725,PAYLOAD,2023-10-27 21:11:25,15.08842055,0.0001342,53.2156,161.5252,97.9945,262.1199,0.00012316,1.673e-05,0.0,0 STARLINK-4725,1 53700U 22107A   23300.88292885  .00001673  00000-0  12316-3 0  9998,2 53700  53.2156 161.5252 0001342  97.9945 262.1199 15.08842055 64451,6917.874,95.437,540.667,538.811,0.0
53700.0,STARLINK-4725,PAYLOAD,2023-10-28 00:22:11,15.08844737,0.0001378,53.2156,160.9299,100.5369,259.5778,0.00015225,2.136e-05,0.0,0 STARLINK-4725,1 53700U 22107A   23301.01540734  .00002136  00000-0  15225-3 0  9990,2 53700  53.2156 160.9299 0001378 100.5369 259.5778 15.08844737 64479,6917.866,95.437,540.684,538.778,0.0
53700.0,STARLINK-4725,PAYLOAD,2023-10-28 21:02:12,15.08842339,0.0001485,53.2159,157.064,95.142,264.9741,-2.8412e-05,-7.4e-06,0.0,0 STARLINK-4725,1 53700U 22107A   23301.87653124 -.00000740  00000-0 -28412-4 0  9996,2 53700  53.2159 157.0640 0001485  95.1420 264.9741 15.08842339 63852,6917.873,95.437,540.766,538.711,0.0
